ONEWEB-0668             
1 56711U 23068B   25362.66374616  .00000057  00000+0  11556-3 0  9998
2 56711  87.9059 262.7108 0001246  92.0733 268.0541 13.16592795129346
ONEWEB-0676             
1 56712U 23068C   25362.44367776  .00000046  00000+0  86983-4 0  9999
2 56712  87.9046 262.7756 0001888  79.0631 281.0712 13.16596990129230
ONEWEB-0677             
1 56713U 23068D   25362.27940976  .00000069  00000+0  13707-3 0  9998
2 56713  87.9223 308.5216 0001912  84.7457 275.3895 13.20772440127243
ONEWEB-0678             
1 56714U 23068E   25362.56340436  .00000186  00000+0  46057-3 0  9990
2 56714  87.9011 293.2339 0001904  67.4194 292.7138 13.15547728126854
ONEWEB-0679             
1 56715U 23068F   25362.63049727  .00000019  00000+0  16296-4 0  9996
2 56715  87.9038 262.7212 0001697  94.3959 265.7366 13.16591807129283
ONEWEB-0680             
1 56716U 23068G   25362.47697453  .00000091  00000+0  19004-3 0  9993
2 56716  87.9235 278.0112 0001464  96.2790 263.8511 13.21827043128547
ONEWEB-0681             
1 56717U 23068H   25362.53211016 -.00000080  00000+0 -22423-3 0  9997
2 56717  87.9222 278.0144 0002733  83.2895 276.8550 13.21826227128541
ONEWEB-0682             
1 56718U 23068J   25362.28532333  .00000044  00000+0  82899-4 0  9990
2 56718  87.9007 293.3022 0001587  92.0416 268.0896 13.15548440126984
